{
    "links": {
        "self": "http://www.neowsapp.com/rest/v1/neo/3728931?api_key=iIulBulltgU6a56xZRHN4H3l9WmuAYTsLGpBGhQ2"
    },
    "id": "3728931",
    "neo_reference_id": "3728931",
    "name": "(2015 TH1)",
    "designation": "2015 TH1",
    "nasa_jpl_url": "http://ssd.jpl.nasa.gov/sbdb.cgi?sstr=3728931",
    "absolute_magnitude_h": 23.3,
    "estimated_diameter": {
        "kilometers": {
            "estimated_diameter_min": 0.058150704,
            "estimated_diameter_max": 0.130028927
        },
        "meters": {
            "estimated_diameter_min": 58.1507039646,
            "estimated_diameter_max": 130.0289270043
        },
        "miles": {
            "estimated_diameter_min": 0.0361331611,
            "estimated_diameter_max": 0.0807962044
        },
        "feet": {
            "estimated_diameter_min": 190.7831555951,
            "estimated_diameter_max": 426.6041048727
        }
    },
    "is_potentially_hazardous_asteroid": false,
    "close_approach_data": [
        {
            "close_approach_date": "2015-10-02",
            "close_approach_date_full": "2015-Oct-02 05:43",
            "epoch_date_close_approach": 1443764580000,
            "relative_velocity": {
                "kilometers_per_second": "7.4842081882",
                "kilometers_per_hour": "26943.1494775626",
                "miles_per_hour": "16741.4252962111"
            },
            "miss_distance": {
                "astronomical": "0.2311237938",
                "lunar": "89.9071557882",
                "kilometers": "34575627.258799206",
                "miles": "21484298.5384568028"
            },
            "orbiting_body": "Earth"
        },
        {
            "close_approach_date": "2026-09-06",
            "close_approach_date_full": "2026-Sep-06 23:02",
            "epoch_date_close_approach": 1788735720000,
            "relative_velocity": {
                "kilometers_per_second": "8.4870954902",
                "kilometers_per_hour": "30553.5437648223",
                "miles_per_hour": "18984.7839020919"
            },
            "miss_distance": {
                "astronomical": "0.3565738323",
                "lunar": "138.7072207647",
                "kilometers": "53342685.809817201",
                "miles": "33145607.9799553338"
            },
            "orbiting_body": "Earth"
        }
    ],
    "orbital_data": {
        "orbit_id": "7",
        "orbit_determination_date": "2017-04-06 08:31:36",
        "first_observation_date": "2015-10-03",
        "last_observation_date": "2015-11-05",
        "data_arc_in_days": 33,
        "observations_used": 25,
        "orbit_uncertainty": "7",
        "minimum_orbit_intersection": ".209074",
        "jupiter_tisserand_invariant": "4.478",
        "epoch_osculation": "2459000.5",
        "eccentricity": ".2053220612860761",
        "semi_major_axis": "1.50429432071162",
        "inclination": "14.51855516933294",
        "ascending_node_longitude": "193.8726280580464",
        "orbital_period": "673.903404959742",
        "perihelion_distance": "1.195429510002173",
        "perihelion_argument": "152.0704558501258",
        "aphelion_distance": "1.813159131421067",
        "perihelion_time": "2459286.910971335265",
        "mean_anomaly": "206.9989186553302",
        "mean_motion": ".5342011887022678",
        "equinox": "J2000",
        "orbit_class": {
            "orbit_class_type": "AMO",
            "orbit_class_description": "Near-Earth asteroid orbits similar to that of 1221 Amor",
            "orbit_class_range": "1.017 AU < q (perihelion) < 1.3 AU"
        }
    },
    "is_sentry_object": false
}